[{"OBJECT_NAME":"STARLINK-5598","OBJECT_ID":"2023-014AG","EPOCH":"2026-03-09T10:19:02.756928","MEAN_MOTION":14.98322418,"ECCENTRICITY":0.00036198,"INCLINATION":69.9992,"RA_OF_ASC_NODE":85.1003,"ARG_OF_PERICENTER":272.2762,"MEAN_ANOMALY":87.7982,"EPHEMERIS_TYPE":0,"CLASSIFICATION_TYPE":"U","NORAD_CAT_ID":55421,"ELEMENT_SET_NO":999,"REV_AT_EPOCH":17152,"BSTAR":0.00015150647,"MEAN_MOTION_DOT":1.715e-5,"MEAN_MOTION_DDOT":0},{"OBJECT_NAME":"UK-DMC","OBJECT_ID":"2003-042D","EPOCH":"2026-03-09T11:57:51.003072","MEAN_MOTION":14.8677093,"ECCENTRICITY":0.0054153,"INCLINATION":98.0812,"RA_OF_ASC_NODE":255.9431,"ARG_OF_PERICENTER":168.0294,"MEAN_ANOMALY":192.2222,"EPHEMERIS_TYPE":0,"CLASSIFICATION_TYPE":"U","NORAD_CAT_ID":27942,"ELEMENT_SET_NO":999,"REV_AT_EPOCH":20795,"BSTAR":0.00022518854,"MEAN_MOTION_DOT":1.999e-5,"MEAN_MOTION_DDOT":0}]
